{
  "norad_id": 65292,
  "name": "STARLINK-35017",
  "history": [
    {
      "epoch": "2026-04-30T14:06:49.724064Z",
      "apogee_km": 551.310973948921,
      "perigee_km": 547.588504490469,
      "latitude_deg": 9.573085481852536e-06,
      "longitude_deg": 103.59474554331683,
      "height_km": 553.8236899567192,
      "semi_major_axis_km": 6927.586739219694,
      "eccentricity": 0.00026867,
      "inclination_deg": 97.5528,
      "raan_deg": 173.8346,
      "arg_perigee_deg": 134.7402,
      "mean_anomaly_deg": 225.4044,
      "mean_motion_rev_day": 15.05670022
    },
    {
      "epoch": "2026-05-02T09:10:43.015584Z",
      "apogee_km": 550.9085301833729,
      "perigee_km": 548.0765152344893,
      "latitude_deg": 1.7906547014642544e-05,
      "longitude_deg": 177.61048543335087,
      "height_km": 553.7370729071965,
      "semi_major_axis_km": 6927.62952270893,
      "eccentricity": 0.0002044,
      "inclination_deg": 97.5486,
      "raan_deg": 175.591,
      "arg_perigee_deg": 146.3926,
      "mean_anomaly_deg": 213.7431,
      "mean_motion_rev_day": 15.05656074
    },
    {
      "epoch": "2026-05-03T17:04:42.989088Z",
      "apogee_km": 551.1687174868639,
      "perigee_km": 547.8088189892687,
      "latitude_deg": -1.89719271330979e-05,
      "longitude_deg": 59.09861102654325,
      "height_km": 553.7852963591264,
      "semi_major_axis_km": 6927.6257682380665,
      "eccentricity": 0.0002425,
      "inclination_deg": 97.5363,
      "raan_deg": 176.8891,
      "arg_perigee_deg": 137.158,
      "mean_anomaly_deg": 222.9836,
      "mean_motion_rev_day": 15.05657298
    }
  ]
}